$$SOE
2459580.500000000, A.D. 2022-Jan-01 00:00:00.0000, -1.266629083590766E+07, -2.671015684940284E+08, 1.330996696325482E+08,
2459587.500000000, A.D. 2022-Jan-08 00:00:00.0000, 5.239092326716314E+05, -2.718139830879979E+08, 1.310169416779596E+08,
2459594.500000000, A.D. 2022-Jan-15 00:00:00.0000, 1.371331819329324E+07, -2.760461985867197E+08, 1.287027017662020E+08,
2459601.500000000, A.D. 2022-Jan-22 00:00:00.0000, 2.687937941775669E+07, -2.798056437815634E+08, 1.261679878544241E+08,
2459608.500000000, A.D. 2022-Jan-29 00:00:00.0000, 4.000097872113934E+07, -2.831007658885520E+08, 1.234238545305001E+08,
2459615.500000000, A.D. 2022-Feb-05 00:00:00.0000, 5.305843390187416E+07, -2.859408807495519E+08, 1.204813032635174E+08,
2459622.500000000, A.D. 2022-Feb-12 00:00:00.0000, 6.603347193804821E+07, -2.883360335884570E+08, 1.173512217430211E+08,
2459629.500000000, A.D. 2022-Feb-19 00:00:00.0000, 7.890919511097640E+07, -2.902968688287402E+08, 1.140443321886981E+08,
2459636.500000000, A.D. 2022-Feb-26 00:00:00.0000, 9.167003714795081E+07, -2.918345101752569E+08, 1.105711481296179E+08,
2459643.500000000, A.D. 2022-Mar-05 00:00:00.0000, 1.043017117218992E+08, -2.929604517283050E+08, 1.069419389409443E+08,
2459650.500000000, A.D. 2022-Mar-12 00:00:00.0000, 1.167911554659681E+08, -2.936864600822245E+08, 1.031667014174379E+08,
2459657.500000000, A.D. 2022-Mar-19 00:00:00.0000, 1.291264672635357E+08, -2.940244870607351E+08, 9.925513766602607E+07,
2459664.500000000, A.D. 2022-Mar-26 00:00:00.0000, 1.412968452851387E+08, -2.939865926205180E+08, 9.521663860623184E+07,
2459671.500000000, A.D. 2022-Apr-02 00:00:00.0000, 1.532925230626998E+08, -2.935848773957871E+08, 9.106027238284914E+07,
2459678.500000000, A.D. 2022-Apr-09 00:00:00.0000, 1.651047058859504E+08, -2.928314242275921E+08, 8.679477701930559E+07,
2459685.500000000, A.D. 2022-Apr-16 00:00:00.0000, 1.767255086991869E+08, -2.917382473361397E+08, 8.242855673060122E+07,
2459692.500000000, A.D. 2022-Apr-23 00:00:00.0000, 1.881478948786058E+08, -2.903172473510396E+08, 7.796968154695213E+07,
2459699.500000000, A.D. 2022-Apr-30 00:00:00.0000, 1.993656145187812E+08, -2.885801737468458E+08, 7.342588973137303E+07,
2459706.500000000, A.D. 2022-May-07 00:00:00.0000, 2.103731456620090E+08, -2.865385959766366E+08, 6.880459209480500E+07,
2459713.500000000, A.D. 2022-May-14 00:00:00.0000, 2.211656401234168E+08, -2.842038796152122E+08, 6.411287792681835E+07,
2459720.500000000, A.D. 2022-May-21 00:00:00.0000, 2.317388720537751E+08, -2.815871661395878E+08, 5.935752243593525E+07,
2459727.500000000, A.D. 2022-May-28 00:00:00.0000, 2.420891888620118E+08, -2.786993567321145E+08, 5.454499535694941E+07,
2459734.500000000, A.D. 2022-Jun-04 00:00:00.0000, 2.522134648188888E+08, -2.755510998920977E+08, 4.968147041026395E+07,
2459741.500000000, A.D. 2022-Jun-11 00:00:00.0000, 2.621090574839970E+08, -2.721527823772858E+08, 4.477283537592868E+07,
2459748.500000000, A.D. 2022-Jun-18 00:00:00.0000, 2.717737669517159E+08, -2.685145230339702E+08, 3.982470258912484E+07,
2459755.500000000, A.D. 2022-Jun-25 00:00:00.0000, 2.812057978693173E+08, -2.646461691633301E+08, 3.484241968893579E+07,
2459762.500000000, A.D. 2022-Jul-02 00:00:00.0000, 2.904037242613654E+08, -2.605572951413272E+08, 2.983108046502072E+07,
2459769.500000000, A.D. 2022-Jul-09 00:00:00.0000, 2.993664574369617E+08, -2.562572028025396E+08, 2.479553566670476E+07,
2459776.500000000, A.D. 2022-Jul-16 00:00:00.0000, 3.080932168027270E+08, -2.517549222294342E+08, 1.974040377523950E+07,
2459783.500000000, A.D. 2022-Jul-23 00:00:00.0000, 3.165835012536895E+08, -2.470592126280129E+08, 1.467008187205696E+07,
2459790.500000000, A.D. 2022-Jul-30 00:00:00.0000, 3.248370610907157E+08, -2.421785664297587E+08, 9.588756260578856E+06,
2459797.500000000, A.D. 2022-Aug-06 00:00:00.0000, 3.328538739277768E+08, -2.371212157819668E+08, 4.500412517200708E+06,
2459804.500000000, A.D. 2022-Aug-13 00:00:00.0000, 3.406341236342074E+08, -2.318951385074875E+08, -5.911547631362677E+05,
2459811.500000000, A.D. 2022-Aug-20 00:00:00.0000, 3.481781806142761E+08, -2.265080638952486E+08, -5.682332449424103E+06,
2459818.500000000, A.D. 2022-Aug-27 00:00:00.0000, 3.554865833680900E+08, -2.209674789247001E+08, -1.076967966820864E+07,
2459825.500000000, A.D. 2022-Sep-03 00:00:00.0000, 3.625600214637151E+08, -2.152806349280382E+08, -1.584991895094806E+07,
2459832.500000000, A.D. 2022-Sep-10 00:00:00.0000, 3.693993198994651E+08, -2.094545545753141E+08, -2.091992774691723E+07,
2459839.500000000, A.D. 2022-Sep-17 00:00:00.0000, 3.760054247811670E+08, -2.034960391076668E+08, -2.597673030592653E+07,
2459846.500000000, A.D. 2022-Sep-24 00:00:00.0000, 3.823793902756483E+08, -1.974116758056112E+08, -3.101748993883431E+07,
2459853.500000000, A.D. 2022-Oct-01 00:00:00.0000, 3.885223669860907E+08, -1.912078456605166E+08, -3.603950167533788E+07,
2459860.500000000, A.D. 2022-Oct-08 00:00:00.0000, 3.944355920685962E+08, -1.848907306809296E+08, -4.104018530709521E+07,
2459867.500000000, A.D. 2022-Oct-15 00:00:00.0000, 4.001203800779771E+08, -1.784663195970193E+08, -4.601707862442286E+07,
2459874.500000000, A.D. 2022-Oct-22 00:00:00.0000, 4.055781122857792E+08, -1.719404136180127E+08, -5.096783077470490E+07,
2459881.500000000, A.D. 2022-Oct-29 00:00:00.0000, 4.108102268951391E+08, -1.653186348111032E+08, -5.589019617296390E+07,
2459888.500000000, A.D. 2022-Nov-05 00:00:00.0000, 4.158182121842317E+08, -1.586064343384686E+08, -6.078202892144759E+07,
2459895.500000000, A.D. 2022-Nov-12 00:00:00.0000, 4.206036005530855E+08, -1.518090992679014E+08, -6.564127744231450E+07,
2459902.500000000, A.D. 2022-Nov-19 00:00:00.0000, 4.251679626989551E+08, -1.449317588984218E+08, -7.046597932309178E+07,
2459909.500000000, A.D. 2022-Nov-26 00:00:00.0000, 4.295129021311104E+08, -1.379793909886347E+08, -7.525425641899721E+07,
2459916.500000000, A.D. 2022-Dec-03 00:00:00.0000, 4.336400501437800E+08, -1.309568278924022E+08, -8.000431021588783E+07,
2459923.500000000, A.D. 2022-Dec-10 00:00:00.0000, 4.375510612494453E+08, -1.238687625785218E+08, -8.471441744425145E+07,
2459930.500000000, A.D. 2022-Dec-17 00:00:00.0000, 4.412476090574871E+08, -1.167197545569626E+08, -8.938292593661131E+07,
2459937.500000000, A.D. 2022-Dec-24 00:00:00.0000, 4.447313826707411E+08, -1.095142357769884E+08, -9.400825073208980E+07,
2459944.500000000, A.D. 2022-Dec-31 00:00:00.0000, 4.480040839229431E+08, -1.022565163902862E+08, -9.858887044056444E+07,
2459951.500000000, A.D. 2023-Jan-07 00:00:00.0000, 4.510674255481315E+08, -9.495078941767094E+07, -1.031233237876606E+08,
2459958.500000000, A.D. 2023-Jan-14 00:00:00.0000, 4.539231282875521E+08, -8.760113382512924E+07, -1.076102061090330E+08,
2459965.500000000, A.D. 2023-Jan-21 00:00:00.0000, 4.565729162632018E+08, -8.021151918678796E+07, -1.120481659838714E+08,
2459972.500000000, A.D. 2023-Jan-28 00:00:00.0000, 4.590185142591195E+08, -7.278581213434875E+07, -1.164359023491254E+08,
2459979.500000000, A.D. 2023-Feb-04 00:00:00.0000, 4.612616466780710E+08, -6.532778156749064E+07, -1.207721618172690E+08,
2459986.500000000, A.D. 2023-Feb-11 00:00:00.0000, 4.633040363591822E+08, -5.784110282153243E+07, -1.250557360394698E+08,
2459993.500000000, A.D. 2023-Feb-18 00:00:00.0000, 4.651474031769180E+08, -5.032936161955838E+07, -1.292854591675175E+08,
2460000.500000000, A.D. 2023-Feb-25 00:00:00.0000, 4.667934626693889E+08, -4.279605797600397E+07, -1.334602054444181E+08,
2460007.500000000, A.D. 2023-Mar-04 00:00:00.0000, 4.682439247841676E+08, -3.524461003880516E+07, -1.375788869243786E+08,
2460014.500000000, A.D. 2023-Mar-11 00:00:00.0000, 4.695004927568278E+08, -2.767835787566522E+07, -1.416404513177539E+08,
2460021.500000000, A.D. 2023-Mar-18 00:00:00.0000, 4.705648621565799E+08, -2.010056725986008E+07, -1.456438799624208E+08,
2460028.500000000, A.D. 2023-Mar-25 00:00:00.0000, 4.714387202902605E+08, -1.251443350862972E+07, -1.495881859372886E+08,
2460035.500000000, A.D. 2023-Apr-01 00:00:00.0000, 4.721237463774786E+08, -4.923084986110672E+06, -1.534724123178536E+08,
2460042.500000000, A.D. 2023-Apr-08 00:00:00.0000, 4.726216118711677E+08, 2.670414950004362E+06, -1.572956304107355E+08,
2460049.500000000, A.D. 2023-Apr-15 00:00:00.0000, 4.729339785790755E+08, 1.026306644759334E+07, -1.610569378381625E+08,
2460056.500000000, A.D. 2023-Apr-22 00:00:00.0000, 4.730624963883114E+08, 1.785192904705953E+07, -1.647554568831357E+08,
2460063.500000000, A.D. 2023-Apr-29 00:00:00.0000, 4.730088033196102E+08, 2.543411720346126E+07, -1.683903331566913E+08,
2460070.500000000, A.D. 2023-May-06 00:00:00.0000, 4.727745261438364E+08, 3.300679722063466E+07, -1.719607342753447E+08,
2460077.500000000, A.D. 2023-May-13 00:00:00.0000, 4.723612805782059E+08, 4.056718469940636E+07, -1.754658485280705E+08,
2460084.500000000, A.D. 2023-May-20 00:00:00.0000, 4.717706712912135E+08, 4.811254200428344E+07, -1.789048835907384E+08,
2460091.500000000, A.D. 2023-May-27 00:00:00.0000, 4.710042919049793E+08, 5.564017571474867E+07, -1.822770653047218E+08,
2460098.500000000, A.D. 2023-Jun-03 00:00:00.0000, 4.700637250482808E+08, 6.314743408287179E+07, -1.855816365196582E+08,
2460105.500000000, A.D. 2023-Jun-10 00:00:00.0000, 4.689505424802167E+08, 7.063170447934306E+07, -1.888178560007698E+08,
2460112.500000000, A.D. 2023-Jun-17 00:00:00.0000, 4.676663053701772E+08, 7.809041076371744E+07, -1.919849974111754E+08,
2460119.500000000, A.D. 2023-Jun-24 00:00:00.0000, 4.662125650509017E+08, 8.552101063023223E+07, -1.950823483913831E+08,
2460126.500000000, A.D. 2023-Jul-01 00:00:00.0000, 4.645908644942475E+08, 9.292099375330716E+07, -1.981092096885271E+08,
2460133.500000000, A.D. 2023-Jul-08 00:00:00.0000, 4.628027388327212E+08, 1.002878815520388E+08, -2.010648941119050E+08,
2460140.500000000, A.D. 2023-Jul-15 00:00:00.0000, 4.608497136490220E+08, 1.076192257411846E+08, -2.039487254276028E+08,
2460147.500000000, A.D. 2023-Jul-22 00:00:00.0000, 4.587333045537484E+08, 1.149126046300575E+08, -2.067600375981779E+08,
$$EOE